H1 CPF  1  HTS 2022  6 19 12  6701 larets           NONE
H2  0304206 5557    27944 2022 06 19  0  0  0 2022 06 24  0  0  0   180 1 1  0 0 0
H5  0.0560 
H9 
10 0 59752   9000.00000  0    1610220.615   -1145853.713    6779174.590
10 0 59752   9180.00000  0     266235.704   -1044812.944    6978328.349
10 0 59752   9360.00000  0   -1083775.065    -870568.270    6922903.922
10 0 59752   9540.00000  0   -2389082.253    -629935.357    6614896.555
10 0 59752   9720.00000  0   -3600760.536    -333436.537    6065429.848
10 0 59752   9900.00000  0   -4673513.286       5139.588    5294391.953
10 0 59752  10080.00000  0   -5567385.095     369342.565    4329767.079
10 0 59752  10260.00000  0   -6249293.674     740808.154    3206667.575
10 0 59752  10440.00000  0   -6694315.046    1100122.249    1966090.730
10 0 59752  10620.00000  0   -6886664.412    1427762.482     653433.135
10 0 59752  10800.00000  0   -6820316.979    1705071.376    -683191.241
10 0 59752  10980.00000  0   -6499222.916    1915210.227   -1994759.947
10 0 59752  11160.00000  0   -5937104.393    2044042.233   -3233191.436
10 0 59752  11340.00000  0   -5156843.674    2080899.864   -4353156.371
10 0 59752  11520.00000  0   -4189493.071    2019190.888   -5313761.280
10 0 59752  11700.00000  0   -3072973.008    1856816.742   -6080031.732
10 0 59752  11880.00000  0   -1850532.695    1596388.152   -6624149.630
10 0 59752  12060.00000  0    -569040.634    1245230.569   -6926413.963
10 0 59752  12240.00000  0     722819.530     815181.559   -6975900.412
10 0 59752  12420.00000  0    1976381.601     322191.742   -6770825.695
10 0 59752  12600.00000  0    3144814.348    -214262.231   -6318610.215
10 0 59752  12780.00000  0    4184861.649    -771934.430   -5635629.068
10 0 59752  12960.00000  0    5058449.349   -1326712.068   -4746660.381
10 0 59752  13140.00000  0    5734111.857   -1853636.382   -3684039.274
10 0 59752  13320.00000  0    6188179.665   -2328002.558   -2486522.581
10 0 59752  13500.00000  0    6405669.514   -2726490.575   -1197892.928
10 0 59752  13680.00000  0    6380827.883   -3028272.039     134651.947
10 0 59752  13860.00000  0    6117296.182   -3216035.704    1462261.333
10 0 59752  14040.00000  0    5627883.586   -3276876.563    2736272.592
10 0 59752  14220.00000  0    4933950.946   -3202998.625    3910044.092
10 0 59752  14400.00000  0    4064447.473   -2992193.439    4940690.751
10 0 59752  14580.00000  0    3054659.340   -2648077.615    5790653.553
10 0 59752  14760.00000  0    1944730.288   -2180079.193    6429044.895
10 0 59752  14940.00000  0     778034.103   -1603177.458    6832724.901
10 0 59752  15120.00000  0    -400531.623    -937413.243    6987088.820
10 0 59752  15300.00000  0   -1546264.667    -207187.350    6886553.093
10 0 59752  15480.00000  0   -2616333.476     559628.362    6534739.607
10 0 59752  15660.00000  0   -3571361.888    1332741.617    5944358.213
10 0 59752  15840.00000  0   -4376878.167    2080620.249    5136786.938
10 0 59752  16020.00000  0   -5004583.949    2771766.751    4141350.839
10 0 59752  16200.00000  0   -5433391.015    3376041.575    2994303.443
10 0 59752  16380.00000  0   -5650178.090    3865977.977    1737537.669
10 0 59752  16560.00000  0   -5650233.276    4218031.273     417061.417
10 0 59752  16740.00000  0   -5437348.196    4413693.503    -918713.282
10 0 59752  16920.00000  0   -5023554.876    4440413.241   -2220790.913
10 0 59752  17100.00000  0   -4428512.639    4292269.263   -3441447.387
10 0 59752  17280.00000  0   -3678574.374    3970355.568   -4536024.034
10 0 59752  17460.00000  0   -2805591.893    3482865.410   -5464576.020
10 0 59752  17640.00000  0   -1845532.975    2844879.322   -6193312.442
10 0 59752  17820.00000  0    -836976.950    2077872.750   -6695789.984
10 0 59752  18000.00000  0     180446.631    1208964.773   -6953821.201
10 0 59752  18180.00000  0    1167607.065     269946.410   -6958084.674
10 0 59752  18360.00000  0    2087363.060    -703879.391   -6708436.384
10 0 59752  18540.00000  0    2905947.289   -1675013.244   -6213911.154
10 0 59752  18720.00000  0    3594200.888   -2605185.969   -5492420.839
10 0 59752  18900.00000  0    4128626.005   -3456858.780   -4570154.630
10 0 59752  19080.00000  0    4492215.114   -4194747.895   -3480674.831
10 0 59752  19260.00000  0    4675020.010   -4787303.247   -2263733.626
10 0 59752  19440.00000  0    4674440.147   -5208082.421    -963839.173
10 0 59752  19620.00000  0    4495203.345   -5436949.712     371387.571
10 0 59752  19800.00000  0    4149033.089   -5461029.835    1692997.502
10 0 59752  19980.00000  0    3654018.532   -5275362.770    2952559.837
10 0 59752  20160.00000  0    3033718.101   -4883224.162    4103980.986
10 0 59752  20340.00000  0    2316051.008   -4296100.258    5105215.332
10 0 59752  20520.00000  0    1532037.658   -3533321.956    5919798.042
10 0 59752  20700.00000  0     714452.063   -2621382.895    6518145.045
10 0 59752  20880.00000  0    -103550.578   -1592978.918    6878577.946
10 0 59752  21060.00000  0    -889768.656    -485816.685    6988056.697
10 0 59752  21240.00000  0   -1614205.209     658769.241    6842616.892
10 0 59752  21420.00000  0   -2250198.527    1797346.976    6447501.933
10 0 59752  21600.00000  0   -2775397.114    2886017.089    5816989.990
10 0 59752  21780.00000  0   -3172549.582    3882094.360    4973919.388
10 0 59752  21960.00000  0   -3430086.562    4745788.983    3948915.465
10 0 59752  22140.00000  0   -3542469.776    5441825.724    2779325.602
10 0 59752  22320.00000  0   -3510287.732    5940928.630    1507883.614
10 0 59752  22500.00000  0   -3340090.017    6221094.712     181147.379
10 0 59752  22680.00000  0   -3043965.668    6268596.007   -1152232.434
10 0 59752  22860.00000  0   -2638881.905    6078646.517   -2443350.414
10 0 59752  23040.00000  0   -2145809.040    5655683.700   -3644898.990
10 0 59752  23220.00000  0   -1588687.013    5013260.555   -4712935.687
10 0 59752  23400.00000  0    -993295.707    4173563.213   -5608498.205
10 0 59752  23580.00000  0    -386085.189    3166588.187   -6299006.867
10 0 59752  23760.00000  0     206982.819    2029017.602   -6759413.328
10 0 59752  23940.00000  0     761527.645     802846.848   -6973057.392
10 0 59752  24120.00000  0    1255734.277    -466175.463   -6932226.321
10 0 59752  24300.00000  0    1671198.842   -1730246.993   -6638407.665
10 0 59752  24480.00000  0    1993606.165   -2941292.395   -6102234.746
10 0 59752  24660.00000  0    2213224.319   -4052775.815   -5343135.728
10 0 59752  24840.00000  0    2325199.797   -5021499.431   -4388678.220
10 0 59752  25020.00000  0    2329639.350   -5809309.046   -3273612.942
10 0 59752  25200.00000  0    2231474.729   -6384644.888   -2038645.877
10 0 59752  25380.00000  0    2040112.065   -6723867.226    -728963.082
10 0 59752  25560.00000  0    1768879.962   -6812280.513     607443.570
10 0 59752  25740.00000  0    1434301.890   -6644792.899    1921578.269
10 0 59752  25920.00000  0    1055229.951   -6226178.578    3165289.892
10 0 59752  26100.00000  0     651885.008   -5570919.929    4293080.575
10 0 59752  26280.00000  0     244856.031   -4702652.411    5263787.815
10 0 59752  26460.00000  0    -145888.664   -3653247.068    6042078.589
10 0 59752  26640.00000  0    -501928.010   -2461576.725    6599702.550
10 0 59752  26820.00000  0    -807212.683   -1172032.510    6916463.617
10 0 59752  27000.00000  0   -1048756.257     167140.342    6980902.214
10 0 59752  27180.00000  0   -1217170.198    1505640.573    6790681.195
10 0 59752  27360.00000  0   -1307023.246    2792982.976    6352664.173
10 0 59752  27540.00000  0   -1317015.112    3980386.257    5682688.860
10 0 59752  27720.00000  0   -1249960.313    5022620.656    4805037.464
10 0 59752  27900.00000  0   -1112581.789    5879756.208    3751609.329
10 0 59752  28080.00000  0    -915121.343    6518741.393    2560805.449
10 0 59752  28260.00000  0    -670784.204    6914746.694    1276153.600
10 0 59752  28440.00000  0    -395032.215    7052197.313     -55292.946
10 0 59752  28620.00000  0    -104763.188    6925435.189   -1384711.853
10 0 59752  28800.00000  0     182579.478    6538969.279   -2663356.233
10 0 59752  28980.00000  0     449915.210    5907291.633   -3844391.611
10 0 59752  29160.00000  0     681407.769    5054285.814   -4884642.062
10 0 59752  29340.00000  0     863277.818    4012258.443   -5746176.332
10 0 59752  29520.00000  0     984504.561    2820647.998   -6397670.581
10 0 59752  29700.00000  0    1037382.726    1524477.572   -6815504.698
10 0 59752  29880.00000  0    1017914.276     172626.357   -6984565.899
10 0 59752  30060.00000  0     926021.578   -1184015.471   -6898754.172
10 0 59752  30240.00000  0     765574.339   -2494447.780   -6561178.815
10 0 59752  30420.00000  0     544232.617   -3709453.925   -5984054.204
10 0 59752  30600.00000  0     273108.131   -4783445.126   -5188296.576
10 0 59752  30780.00000  0     -33744.299   -5676189.244   -4202813.165
10 0 59752  30960.00000  0    -359988.470   -6354362.265   -3063500.442
10 0 59752  31140.00000  0    -687796.580   -6792855.693   -1811967.391
10 0 59752  31320.00000  0    -998731.804   -6975776.079    -494020.631
10 0 59752  31500.00000  0   -1274680.307   -6897076.479     842038.331
10 0 59752  31680.00000  0   -1498785.171   -6560780.330    2147227.401
10 0 59752  31860.00000  0   -1656332.944   -5980784.584    3373730.849
10 0 59752  32040.00000  0   -1735542.746   -5180248.829    4476692.979
10 0 59752  32220.00000  0   -1728215.992   -4190610.215    5415872.965
10 0 59752  32400.00000  0   -1630220.551   -3050287.268    6157099.945
10 0 59752  32580.00000  0   -1441785.834   -1803132.947    6673479.557
10 0 59752  32760.00000  0   -1167597.347    -496719.472    6946316.235
10 0 59752  32940.00000  0    -816696.258     819480.159    6965743.317
10 0 59752  33120.00000  0    -402184.533    2095951.613    6731051.845
10 0 59752  33300.00000  0      59260.488    3284983.797    6250716.184
99
